OBJECT_NAME,OBJECT_ID,EPOCH,MEAN_MOTION,ECCENTRICITY,INCLINATION,RA_OF_ASC_NODE,ARG_OF_PERICENTER,MEAN_ANOMALY,EPHEMERIS_TYPE,CLASSIFICATION_TYPE,NORAD_CAT_ID,ELEMENT_SET_NO,REV_AT_EPOCH,BSTAR,MEAN_MOTION_DOT,MEAN_MOTION_DDOT
LEMUR-2-FINNIAN,2025-276DX,2026-07-01T22:50:41.684640,15.00493510,.0008478,97.5330,253.4795,45.8769,314.3151,0,U,66782,999,2221,.26643607E-3,.3301E-4,0
LEMUR-2-STARLIGHT,2025-276DY,2026-07-02T10:55:29.809632,14.99216873,.00146669,97.5232,253.5719,84.0655,276.2240,0,U,66783,999,3248,.5845882E-3,.7085E-4,0
LEMUR-2-TARTIFLETTE,2025-276DZ,2026-07-02T10:53:04.883136,14.99220846,.00136297,97.5235,253.5783,91.6516,268.6269,0,U,66784,999,3248,.57881708E-3,.7013E-4,0
LEMUR-2-VUKASIN,2025-276EA,2026-07-02T04:01:06.227616,15.00442804,.00049534,97.5271,253.6348,89.5693,270.6099,0,U,66785,999,3239,.15220199E-3,.1857E-4,0
LEMUR-2-HOTSPUR-TOM,2025-276EB,2026-07-02T10:43:51.691584,14.99123275,.00142469,97.5226,253.5500,83.3390,276.9454,0,U,66786,999,3241,.60937629E-3,.7369E-4,0
LEMUR-2-MYRA,2025-276EC,2026-07-02T11:11:34.472544,15.00458761,.00182015,97.5213,253.8474,92.9398,267.3910,0,U,66787,999,3250,.69208758E-3,.8688E-4,0
LEMUR-2 FIKRETDENGIZ,2026-004A,2026-07-02T14:19:33.497472,14.88437782,.0010569,97.8015,181.9187,90.5089,269.7339,0,U,67363,999,2557,.5351729E-3,.4917E-4,0
TWILIGHT-1 OBJECT B,2026-004B,2026-07-01T22:55:57.023904,14.87754645,.00102413,97.8064,181.2954,83.1024,277.1357,0,U,67364,999,2548,.23142862E-3,.2058E-4,0
LEMUR-2-MARIO-SOUSA,2026-004C,2026-07-02T07:25:53.993280,14.88637260,.00101938,97.7990,181.6315,92.2999,267.9385,0,U,67365,999,2554,.53039441E-3,.4896E-4,0
LEMUR-2-SONNENBLUME,2026-004E,2026-07-02T10:40:23.125440,14.88397632,.00097132,97.7987,181.7431,93.1021,267.1307,0,U,67367,999,2556,.35668552E-3,.3254E-4,0
LEMUR-2-WOBLER,2026-004F,2026-07-02T05:37:29.758080,14.88621969,.00100103,97.8040,181.6734,85.4516,274.7844,0,U,67368,999,2553,.46921612E-3,.4323E-4,0
LEMUR-2-GRAM-E-SUE,2026-004H,2026-07-01T22:57:44.846784,14.88538003,.00088572,97.7971,181.2787,96.3817,263.8409,0,U,67370,999,2549,.32270566E-3,.2949E-4,0
LEMUR-2-KATIE,2026-004AA,2026-07-02T11:10:17.752800,14.90151706,.00044049,97.8033,182.2884,62.0991,298.0672,0,U,67387,999,2558,.6192535E-3,.5942E-4,0
LEMUR-2-HCS-BAZUS,2026-004AB,2026-07-02T11:08:16.055808,14.90209012,.00038286,97.8024,182.2669,60.5048,299.6551,0,U,67388,999,2558,.47844148E-3,.4584E-4,0
